{
    "links": {
        "self": "http://www.neowsapp.com/rest/v1/neo/3726318?api_key=iIulBulltgU6a56xZRHN4H3l9WmuAYTsLGpBGhQ2"
    },
    "id": "3726318",
    "neo_reference_id": "3726318",
    "name": "(2015 QB)",
    "designation": "2015 QB",
    "nasa_jpl_url": "http://ssd.jpl.nasa.gov/sbdb.cgi?sstr=3726318",
    "absolute_magnitude_h": 24.2,
    "estimated_diameter": {
        "kilometers": {
            "estimated_diameter_min": 0.0384197891,
            "estimated_diameter_max": 0.0859092601
        },
        "meters": {
            "estimated_diameter_min": 38.4197891064,
            "estimated_diameter_max": 85.9092601232
        },
        "miles": {
            "estimated_diameter_min": 0.0238729428,
            "estimated_diameter_max": 0.0533815229
        },
        "feet": {
            "estimated_diameter_min": 126.0491808919,
            "estimated_diameter_max": 281.8545369825
        }
    },
    "is_potentially_hazardous_asteroid": false,
    "close_approach_data": [
        {
            "close_approach_date": "2015-08-02",
            "close_approach_date_full": "2015-Aug-02 18:07",
            "epoch_date_close_approach": 1438538820000,
            "relative_velocity": {
                "kilometers_per_second": "5.3057497862",
                "kilometers_per_hour": "19100.6992304576",
                "miles_per_hour": "11868.4316968363"
            },
            "miss_distance": {
                "astronomical": "0.0352612613",
                "lunar": "13.7166306457",
                "kilometers": "5275009.583993431",
                "miles": "3277738.9647181078"
            },
            "orbiting_body": "Earth"
        }
    ],
    "orbital_data": {
        "orbit_id": "13",
        "orbit_determination_date": "2017-04-06 08:32:22",
        "first_observation_date": "2015-08-17",
        "last_observation_date": "2015-09-08",
        "data_arc_in_days": 22,
        "observations_used": 56,
        "orbit_uncertainty": "7",
        "minimum_orbit_intersection": ".0338734",
        "jupiter_tisserand_invariant": "4.030",
        "epoch_osculation": "2459000.5",
        "eccentricity": ".4027444723373241",
        "semi_major_axis": "1.753695928496827",
        "inclination": "1.228141137866766",
        "ascending_node_longitude": "152.0000468982985",
        "orbital_period": "848.2617173102361",
        "perihelion_distance": "1.047404587134259",
        "perihelion_argument": "152.671321913347",
        "aphelion_distance": "2.459987269859396",
        "perihelion_time": "2458929.428799218524",
        "mean_anomaly": "30.16242718398416",
        "mean_motion": ".424397320607051",
        "equinox": "J2000",
        "orbit_class": {
            "orbit_class_type": "AMO",
            "orbit_class_description": "Near-Earth asteroid orbits similar to that of 1221 Amor",
            "orbit_class_range": "1.017 AU < q (perihelion) < 1.3 AU"
        }
    },
    "is_sentry_object": false
}